NOAA 15                 
1 25338U 98030A   23129.57423380  .00000315  00000+0  14904-3 0  9999
2 25338  98.6090 159.2858 0011487  69.8076 290.4339 14.26309444299502
NOAA 18                 
1 28654U 05018A   23129.54363344  .00000314  00000+0  19235-3 0  9998
2 28654  98.9102 204.1197 0015285 127.5274 232.7289 14.12930212926026
NOAA 19                 
1 33591U 09005A   23129.58323021  .00000270  00000+0  16999-3 0  9991
2 33591  99.1031 174.8872 0013624 356.1440   3.9624 14.12748965734232
METOP-B                 
1 38771U 12049A   23129.60982484  .00000215  00000+0  11828-3 0  9990
2 38771  98.6811 189.6234 0001581 107.8535  29.6479 14.21507445552077
SARAL                   
1 39086U 13009A   23129.53535445  .00000189  00000+0  86274-4 0  9998
2 39086  98.5482 315.3884 0002771  60.5284 299.6176 14.32186859533152
METOP-C                 
1 43689U 18087A   23129.54944474  .00000212  00000+0  11664-3 0  9997
2 43689  98.6856 189.6808 0003338 154.9209 205.2131 14.21500740233636
ANGELS                  
1 44876U 19092D   23129.46629047  .00006567  00000+0  29914-3 0  9996
2 44876  97.4785 314.4235 0009846 306.3394  53.6932 15.20974574187736
GAZELLE                 
1 54023U 22127A   23129.50300537 -.00000043  00000+0  00000+0 0  9994
2 54023  98.3228 128.3786 0013921  17.6270 342.5414 14.41826073 30802
EOS-6 (OCEANSAT-3)      
1 54361U 22158A   23129.49520823 -.00003103  00000+0 -84259-3 0  9996
2 54361  98.3485 226.9942 0001250  83.3939 276.7455 14.46963297 23748
